[{"IVRNO":"529","Id":"0545","SID":"4063","latitude":"22.627304","longitude":"120.290191","nameZh":"台灣銀行(健保署)","seqNo":"3"},{"IVRNO":"482","Id":"0906","SID":"4062","latitude":"22.626216","longitude":"120.2869","nameZh":"歷史博物館(高雄國際會議中心)","seqNo":"2"},{"IVRNO":"5107","Id":"1095","SID":"14256","latitude":"22.664369","longitude":"120.321775","nameZh":"金鼎路口","seqNo":"24"},{"IVRNO":"1524","Id":"1096","SID":"19186","latitude":"22.628386","longitude":"120.293372","nameZh":"捷運市議會","seqNo":"4"},{"IVRNO":"1525","Id":"1525","SID":"2773","latitude":"22.633282","longitude":"120.294528","nameZh":"七賢二路口(中華三路)","seqNo":"6"},{"IVRNO":"4000","Id":"4000","SID":"2656","latitude":"22.625203","longitude":"120.285357","nameZh":"捷運鹽埕埔站(大仁路)","seqNo":"1"},{"IVRNO":"8618","Id":"4033","SID":"5632","latitude":"22.65506","longitude":"120.29893","nameZh":"龍華國小","seqNo":"13"},{"IVRNO":"4035","Id":"4035","SID":"2793","latitude":"22.65097","longitude":"120.2921","nameZh":"龍子里","seqNo":"10"},{"IVRNO":"193","Id":"4036","SID":"2217","latitude":"22.64608","longitude":"120.2919","nameZh":"變電所(中華二路)","seqNo":"9"},{"IVRNO":"4038","Id":"4038","SID":"2778","latitude":"22.636","longitude":"120.29333","nameZh":"三民市場","seqNo":"7"},{"IVRNO":"4040","Id":"4040","SID":"2772","latitude":"22.631103","longitude":"120.295253","nameZh":"六合二路口","seqNo":"5"},{"IVRNO":"4037","Id":"4058","SID":"2779","latitude":"22.6416","longitude":"120.29168","nameZh":"九如三路口","seqNo":"8"},{"IVRNO":"4032","Id":"4060","SID":"2800","latitude":"22.656761","longitude":"120.306405","nameZh":"大順一路(好市多)","seqNo":"15"},{"IVRNO":"4034","Id":"4061","SID":"2794","latitude":"22.65468","longitude":"120.29665","nameZh":"龍德路口(大順一路)","seqNo":"12"},{"IVRNO":"4050","Id":"4062","SID":"2799","latitude":"22.655937","longitude":"120.302613","nameZh":"捷運凹子底站(大順一路)","seqNo":"14"},{"IVRNO":"4064","Id":"4064","SID":"2802","latitude":"22.65666","longitude":"120.30961","nameZh":"龍華國中(大順一路)","seqNo":"16"},{"IVRNO":"4065","Id":"4065","SID":"2806","latitude":"22.655502","longitude":"120.314902","nameZh":"大順民族路口","seqNo":"18"},{"IVRNO":"4029","Id":"4066","SID":"2807","latitude":"22.654838","longitude":"120.316804","nameZh":"和順街口","seqNo":"19"},{"IVRNO":"4088","Id":"4088","SID":"2845","latitude":"22.65585","longitude":"120.31301","nameZh":"慈濟靜思堂(新上國小)","seqNo":"17"},{"IVRNO":"4095","Id":"4095","SID":"2862","latitude":"22.653904","longitude":"120.294397","nameZh":"裕誠路口(大順一路)","seqNo":"11"},{"IVRNO":"5000","Id":"5001","SID":"3536","latitude":"22.665574","longitude":"120.321855","nameZh":"金獅湖站","seqNo":"25"},{"IVRNO":"5108","Id":"5108","SID":"3842","latitude":"22.662455","longitude":"120.321882","nameZh":"金山路口","seqNo":"23"},{"IVRNO":"5109","Id":"5109","SID":"3768","latitude":"22.660385","longitude":"120.322023","nameZh":"鼎西里","seqNo":"22"},{"IVRNO":"5110","Id":"5110","SID":"3771","latitude":"22.65676","longitude":"120.32131","nameZh":"鼎金國小","seqNo":"21"},{"IVRNO":"5111","Id":"5111","SID":"3778","latitude":"22.654467","longitude":"120.319519","nameZh":"鼎金國中","seqNo":"20"}]