[{"IVRNO":"19","Id":"0019","SID":"932","latitude":"22.62125","longitude":"120.28853","nameZh":"大成街口(真愛碼頭)","seqNo":"32"},{"IVRNO":"35","Id":"0035","SID":"931","latitude":"22.62061","longitude":"120.2922","nameZh":"高雄女中(真愛碼頭)","seqNo":"31"},{"IVRNO":"115","Id":"0115","SID":"2958","latitude":"22.623516","longitude":"120.2866","nameZh":"大智路(光榮國小)","seqNo":"34"},{"IVRNO":"1317","Id":"0303","SID":"495","latitude":"22.640898","longitude":"120.327286","nameZh":"大順陸橋(科工館)","seqNo":"12"},{"IVRNO":"403","Id":"0403","SID":"3065","latitude":"22.63296","longitude":"120.3273","nameZh":"福德市場","seqNo":"14"},{"IVRNO":"421","Id":"0421","SID":"948","latitude":"22.621742","longitude":"120.287431","nameZh":"大智路口(五福四路)","seqNo":"33"},{"IVRNO":"605","Id":"0605","SID":"525","latitude":"22.62995","longitude":"120.32773","nameZh":"捷運五塊厝站(福德三路)","seqNo":"16"},{"IVRNO":"673","Id":"0673","SID":"2839","latitude":"22.618604","longitude":"120.308076","nameZh":"忠孝路口(四維三路)","seqNo":"25"},{"IVRNO":"1027","Id":"1027","SID":"84","latitude":"22.61913","longitude":"120.29591","nameZh":"漢神百貨","seqNo":"30"},{"IVRNO":"1046","Id":"1046","SID":"2844","latitude":"22.615486","longitude":"120.298802","nameZh":"自強三路口(四維四路)","seqNo":"28"},{"IVRNO":"1047","Id":"1047","SID":"2828","latitude":"22.62175","longitude":"120.317235","nameZh":"光華路口(四維二路)","seqNo":"22"},{"IVRNO":"5107","Id":"1095","SID":"14337","latitude":"22.66451","longitude":"120.321788","nameZh":"金鼎路口","seqNo":"2"},{"IVRNO":"1121","Id":"1121","SID":"2834","latitude":"22.619498","longitude":"120.311826","nameZh":"市政大樓(四維三路)","seqNo":"24"},{"IVRNO":"1216","Id":"1216","SID":"2840","latitude":"22.61758","longitude":"120.30508","nameZh":"苓雅國中","seqNo":"26"},{"IVRNO":"1313","Id":"1313","SID":"507","latitude":"22.62811","longitude":"120.32726","nameZh":"福安路口","seqNo":"17"},{"IVRNO":"1314","Id":"1314","SID":"506","latitude":"22.632178","longitude":"120.328087","nameZh":"建國一路口","seqNo":"15"},{"IVRNO":"1319","Id":"1329","SID":"484","latitude":"22.645322","longitude":"120.325674","nameZh":"正興國小","seqNo":"10"},{"IVRNO":"1318","Id":"1330","SID":"485","latitude":"22.643053","longitude":"120.326567","nameZh":"樹德家商","seqNo":"11"},{"IVRNO":"1316","Id":"1332","SID":"497","latitude":"22.634566","longitude":"120.326247","nameZh":"憲政路口","seqNo":"13"},{"IVRNO":"1624","Id":"1624","SID":"865","latitude":"22.61696","longitude":"120.29676","nameZh":"苓雅市場","seqNo":"29"},{"IVRNO":"3437","Id":"3437","SID":"2445","latitude":"22.649444","longitude":"120.324383","nameZh":"建工路口(高雄高工)","seqNo":"9"},{"IVRNO":"4000","Id":"4000","SID":"2658","latitude":"22.625203","longitude":"120.285357","nameZh":"捷運鹽埕埔站(大仁路)","seqNo":"35"},{"IVRNO":"4017","Id":"4017","SID":"2819","latitude":"22.6241","longitude":"120.32431","nameZh":"凱旋醫院(民生醫院)","seqNo":"19"},{"IVRNO":"4028","Id":"4067","SID":"2811","latitude":"22.652533","longitude":"120.320117","nameZh":"鼎山街口","seqNo":"7"},{"IVRNO":"4027","Id":"4068","SID":"2814","latitude":"22.650732","longitude":"120.322738","nameZh":"大順二路","seqNo":"8"},{"IVRNO":"4018","Id":"4077","SID":"2818","latitude":"22.62456","longitude":"120.3257","nameZh":"四維一路","seqNo":"18"},{"IVRNO":"1413","Id":"4079","SID":"2820","latitude":"22.62301","longitude":"120.32125","nameZh":"長青服務中心","seqNo":"20"},{"IVRNO":"4015","Id":"4080","SID":"2827","latitude":"22.62263","longitude":"120.3199","nameZh":"廣東一街口","seqNo":"21"},{"IVRNO":"4013","Id":"4082","SID":"2833","latitude":"22.620587","longitude":"120.314076","nameZh":"復華中學","seqNo":"23"},{"IVRNO":"4009","Id":"4086","SID":"2843","latitude":"22.61655","longitude":"120.3021","nameZh":"中華四路口","seqNo":"27"},{"IVRNO":"5000","Id":"5001","SID":"3541","latitude":"22.666054","longitude":"120.321907","nameZh":"金獅湖站","seqNo":"1"},{"IVRNO":"5108","Id":"5108","SID":"3761","latitude":"22.662621","longitude":"120.321868","nameZh":"金山路口","seqNo":"3"},{"IVRNO":"5109","Id":"5109","SID":"3831","latitude":"22.660617","longitude":"120.322025","nameZh":"鼎西里","seqNo":"4"},{"IVRNO":"5110","Id":"5110","SID":"3829","latitude":"22.65676","longitude":"120.32131","nameZh":"鼎金國小","seqNo":"5"},{"IVRNO":"5111","Id":"5111","SID":"3820","latitude":"22.65475","longitude":"120.31981","nameZh":"鼎金國中","seqNo":"6"}]